{"spkid": "20363067", "covariance": {"labels": ["e", "q", "tp", "node", "peri", "i"], "elements": [{"sigma": 1.23964130558218e-08, "name": "e", "title": "eccentricity", "value": ".09006394235929013", "units": null, "label": "e"}, {"sigma": 1.33353864177561e-08, "name": "q", "value": ".9794351851848834", "title": "perihelion distance", "units": "au", "label": "q"}, {"sigma": 1.22576571931583e-05, "name": "tp", "units": "TDB", "value": "2456379.694371546095", "title": "time of perihelion passage", "label": "tp"}, {"label": "node", "sigma": 2.20174123055656e-06, "name": "om", "value": "353.0855722094478", "title": "longitude of the ascending node", "units": "deg"}, {"sigma": 1.19013276706945e-05, "name": "w", "title": "argument of perihelion", "value": "64.94863204386522", "units": "deg", "label": "peri"}, {"label": "i", "name": "i", "sigma": 6.51548920196383e-06, "units": "deg", "title": "inclination", "value": "15.32295127996193"}], "data": [["1.536710566505495E-16", "-1.645559195607459E-16", "-5.908569043883827E-14", "-4.969800276996504E-15", "-4.233529317210082E-14", "-7.776756400103827E-16"], ["-1.645559195607459E-16", "1.778325309108732E-16", "6.631286942943942E-14", "5.554927316361834E-15", "4.499106796847082E-14", "1.53741324267841E-15"], ["-5.908569043883827E-14", "6.631286942943942E-14", "1.502501598649847E-10", "2.467568711621E-12", "1.388979348565742E-10", "-7.372492335144341E-12"], ["-4.969800276996504E-15", "5.554927316361834E-15", "2.467568711621E-12", "4.847664446332735E-12", "-3.46995280241869E-12", "1.271699237753341E-11"], ["-4.233529317210082E-14", "4.499106796847082E-14", "1.388979348565742E-10", "-3.46995280241869E-12", "1.416416003252395E-10", "-2.226023709104488E-11"], ["-7.776756400103827E-16", "1.53741324267841E-15", "-7.372492335144341E-12", "1.271699237753341E-11", "-2.226023709104488E-11", "4.245159954090725E-11"]], "epoch": "2456330.5"}, "elements": [{"label": "e", "name": "e", "sigma": "1.2399E-8", "units": null, "title": "eccentricity", "value": ".09003361225302672"}, {"title": "semi-major axis", "value": "1.076402734841608", "units": "au", "sigma": "1.222E-9", "name": "a", "label": "a"}, {"units": "au", "value": ".9794903083847809", "title": "perihelion distance", "name": "q", "sigma": "1.3316E-8", "label": "q"}, {"label": "i", "units": "deg", "value": "15.32162551034221", "title": "inclination; angle with respect to x-y ecliptic plane", "name": "i", "sigma": "6.5159E-6"}, {"units": "deg", "title": "longitude of the ascending node", "value": "353.0229581077463", "sigma": "2.2141E-6", "name": "om", "label": "node"}, {"title": "argument of perihelion", "value": "64.96117401702332", "units": "deg", "name": "w", "sigma": "1.1907E-5", "label": "peri"}, {"label": "M", "name": "ma", "sigma": "1.4355E-5", "units": "deg", "title": "mean anomaly", "value": "294.812606449259"}, {"value": "2461274.362113671053", "title": "time of perihelion passage", "units": "TDB", "sigma": "1.635E-5", "name": "tp", "label": "tp"}, {"label": "period", "value": "407.9064903995787", "title": "sidereal orbital period", "units": "d", "name": "per", "sigma": "6.9461E-7"}, {"label": "n", "units": "deg/d", "value": ".8825552141799697", "title": "mean motion", "name": "n", "sigma": "1.5029E-9"}, {"label": "Q", "units": "au", "title": "aphelion distance", "value": "1.173315161298435", "sigma": "1.332E-9", "name": "ad"}], "epoch": "2461200.5"}